{"type": "FeatureCollection", "features": [ {"type": "Feature", "properties": {"norad_id": 34077, "name": "IRIDIUM 33 DEB", "group": "iridium-33-debris", "lat": 42.234922402073906, "lon": 55.89752474810252, "alt_km": 667.0349781081331, "timestamp": "2025-12-10T05:46:14.210884+00:00", "meta": {"OBJECT_NAME": "IRIDIUM 33 DEB", "OBJECT_ID": "1997-051CL", "EPOCH": "2025-12-09T13:24:46.082880", "MEAN_MOTION": 14.64764722, "ECCENTRICITY": 0.0010522, "INCLINATION": 86.386, "RA_OF_ASC_NODE": 52.9083, "ARG_OF_PERICENTER": 49.5485, "MEAN_ANOMALY": 1.1471, "EPHEMERIS_TYPE": 0, "CLASSIFICATION_TYPE": "U", "NORAD_CAT_ID": 34077, "ELEMENT_SET_NO": 999, "REV_AT_EPOCH": 88286, "BSTAR": 0.0022801, "MEAN_MOTION_DOT": 0.00012191, "MEAN_MOTION_DDOT": 0}, "tle": {"line1": "1 34077U 97051CL  25343.55886670  .00012191  00000+0  22801-2 0  9993", "line2": "2 34077  86.3860  52.9083 0010522  49.5485   1.1471 14.64764722882865"}}, "geometry": {"type": "Point", "coordinates": [55.89752474810252, 42.234922402073906]}}, {"type": "Feature", "properties": {"norad_id": 34079, "name": "IRIDIUM 33 DEB", "group": "iridium-33-debris", "lat": -46.44479250228864, "lon": -166.38106371007686, "alt_km": 629.0407591086105, "timestamp": "2025-12-10T05:46:14.210895+00:00", "meta": {"OBJECT_NAME": "IRIDIUM 33 DEB", "OBJECT_ID": "1997-051CN", "EPOCH": "2025-12-09T19:49:59.377152", "MEAN_MOTION": 14.83403251, "ECCENTRICITY": 0.0005976, "INCLINATION": 86.3775, "RA_OF_ASC_NODE": 9.9867, "ARG_OF_PERICENTER": 17.2043, "MEAN_ANOMALY": 159.5676, "EPHEMERIS_TYPE": 0, "CLASSIFICATION_TYPE": "U", "NORAD_CAT_ID": 34079, "ELEMENT_SET_NO": 999, "REV_AT_EPOCH": 88934, "BSTAR": 0.0023828, "MEAN_MOTION_DOT": 0.00019611, "MEAN_MOTION_DDOT": 0}, "tle": {"line1": "1 34079U 97051CN  25343.82638168  .00019611  00000+0  23828-2 0  9996", "line2": "2 34079  86.3775   9.9867 0005976  17.2043 159.5676 14.83403251889346"}}, "geometry": {"type": "Point", "coordinates": [-166.38106371007686, -46.44479250228864]}}, {"type": "Feature", "properties": {"norad_id": 34088, "name": "IRIDIUM 33 DEB", "group": "iridium-33-debris", "lat": -67.427127825694, "lon": -139.37905922917358, "alt_km": 599.8122798781969, "timestamp": "2025-12-10T05:46:14.210905+00:00", "meta": {"OBJECT_NAME": "IRIDIUM 33 DEB", "OBJECT_ID": "1997-051CX", "EPOCH": "2025-12-09T11:14:20.281920", "MEAN_MOTION": 14.91127801, "ECCENTRICITY": 0.00054768, "INCLINATION": 86.3845, "RA_OF_ASC_NODE": 32.2268, "ARG_OF_PERICENTER": 188.4748, "MEAN_ANOMALY": 236.8538, "EPHEMERIS_TYPE": 0, "CLASSIFICATION_TYPE": "U", "NORAD_CAT_ID": 34088, "ELEMENT_SET_NO": 999, "REV_AT_EPOCH": 88693, "BSTAR": 0.0032694567, "MEAN_MOTION_DOT": 0.0003256, "MEAN_MOTION_DDOT": 0}, "tle": {"line1": "1 34088U 97051CX  25343.46829030  .00032560  00000+0  32695-2 0  9996", "line2": "2 34088  86.3845  32.2268 0005476 188.4748 236.8538 14.91127801886937"}}, "geometry": {"type": "Point", "coordinates": [-139.37905922917358, -67.427127825694]}}, {"type": "Feature", "properties": {"norad_id": 34091, "name": "IRIDIUM 33 DEB", "group": "iridium-33-debris", "lat": 20.604287898049748, "lon": -113.40037905808421, "alt_km": 643.2924041275, "timestamp": "2025-12-10T05:46:14.210915+00:00", "meta": {"OBJECT_NAME": "IRIDIUM 33 DEB", "OBJECT_ID": "1997-051DA", "EPOCH": "2025-12-09T06:21:21.737088", "MEAN_MOTION": 14.81387493, "ECCENTRICITY": 0.0033239, "INCLINATION": 86.3413, "RA_OF_ASC_NODE": 68.4246, "ARG_OF_PERICENTER": 305.7588, "MEAN_ANOMALY": 54.0544, "EPHEMERIS_TYPE": 0, "CLASSIFICATION_TYPE": "U", "NORAD_CAT_ID": 34091, "ELEMENT_SET_NO": 999, "REV_AT_EPOCH": 87815, "BSTAR": 0.0066531, "MEAN_MOTION_DOT": 0.00052856, "MEAN_MOTION_DDOT": 0}, "tle": {"line1": "1 34091U 97051DA  25343.26483492  .00052856  00000+0  66531-2 0  9992", "line2": "2 34091  86.3413  68.4246 0033239 305.7588  54.0544 14.81387493878159"}}, "geometry": {"type": "Point", "coordinates": [-113.40037905808421, 20.604287898049748]}}, {"type": "Feature", "properties": {"norad_id": 34097, "name": "IRIDIUM 33 DEB", "group": "iridium-33-debris", "lat": 69.43705351108784, "lon": 172.30605102967604, "alt_km": 778.9415217548894, "timestamp": "2025-12-10T05:46:14.210925+00:00", "meta": {"OBJECT_NAME": "IRIDIUM 33 DEB", "OBJECT_ID": "1997-051DG", "EPOCH": "2025-12-09T12:31:33.069792", "MEAN_MOTION": 14.34736702, "ECCENTRICITY": 0.0082938, "INCLINATION": 86.2001, "RA_OF_ASC_NODE": 2.8277, "ARG_OF_PERICENTER": 12.6718, "MEAN_ANOMALY": 347.6535, "EPHEMERIS_TYPE": 0, "CLASSIFICATION_TYPE": "U", "NORAD_CAT_ID": 34097, "ELEMENT_SET_NO": 999, "REV_AT_EPOCH": 87073, "BSTAR": 0.0020674, "MEAN_MOTION_DOT": 6.107e-05, "MEAN_MOTION_DDOT": 0}, "tle": {"line1": "1 34097U 97051DG  25343.52191053  .00006107  00000+0  20674-2 0  9992", "line2": "2 34097  86.2001   2.8277 0082938  12.6718 347.6535 14.34736702870738"}}, "geometry": {"type": "Point", "coordinates": [172.30605102967604, 69.43705351108784]}}, {"type": "Feature", "properties": {"norad_id": 34145, "name": "IRIDIUM 33 DEB", "group": "iridium-33-debris", "lat": -49.23079471426948, "lon": -30.767503303943876, "alt_km": 792.6064851111887, "timestamp": "2025-12-10T05:46:14.210935+00:00", "meta": {"OBJECT_NAME": "IRIDIUM 33 DEB", "OBJECT_ID": "1997-051DY", "EPOCH": "2025-12-09T10:01:09.026976", "MEAN_MOTION": 14.42251473, "ECCENTRICITY": 0.00556161, "INCLINATION": 86.2119, "RA_OF_ASC_NODE": 334.0058, "ARG_OF_PERICENTER": 104.3525, "MEAN_ANOMALY": 256.3858, "EPHEMERIS_TYPE": 0, "CLASSIFICATION_TYPE": "U", "NORAD_CAT_ID": 34145, "ELEMENT_SET_NO": 999, "REV_AT_EPOCH": 87590, "BSTAR": 0.0016534219, "MEAN_MOTION_DOT": 5.573e-05, "MEAN_MOTION_DDOT": 0}, "tle": {"line1": "1 34145U 97051DY  25343.41746559  .00005573  00000+0  16534-2 0  9997", "line2": "2 34145  86.2119 334.0058 0055616 104.3525 256.3858 14.42251473875901"}}, "geometry": {"type": "Point", "coordinates": [-30.767503303943876, -49.23079471426948]}}, {"type": "Feature", "properties": {"norad_id": 34146, "name": "IRIDIUM 33 DEB", "group": "iridium-33-debris", "lat": -67.77739625472854, "lon": -179.94134925939497, "alt_km": 719.0721846775941, "timestamp": "2025-12-10T05:46:14.210946+00:00", "meta": {"OBJECT_NAME": "IRIDIUM 33 DEB", "OBJECT_ID": "1997-051DZ", "EPOCH": "2025-12-09T11:08:14.290656", "MEAN_MOTION": 14.49013185, "ECCENTRICITY": 0.00252302, "INCLINATION": 86.2836, "RA_OF_ASC_NODE": 351.2473, "ARG_OF_PERICENTER": 233.2613, "MEAN_ANOMALY": 287.271, "EPHEMERIS_TYPE": 0, "CLASSIFICATION_TYPE": "U", "NORAD_CAT_ID": 34146, "ELEMENT_SET_NO": 999, "REV_AT_EPOCH": 88059, "BSTAR": 0.001459577, "MEAN_MOTION_DOT": 5.577e-05, "MEAN_MOTION_DDOT": 0}, "tle": {"line1": "1 34146U 97051DZ  25343.46405429  .00005577  00000+0  14596-2 0  9991", "line2": "2 34146  86.2836 351.2473 0025230 233.2613 287.2710 14.49013185880593"}}, "geometry": {"type": "Point", "coordinates": [-179.94134925939497, -67.77739625472854]}}, {"type": "Feature", "properties": {"norad_id": 34159, "name": "IRIDIUM 33 DEB", "group": "iridium-33-debris", "lat": 57.54435151573319, "lon": 55.065733705450015, "alt_km": 767.5977194620655, "timestamp": "2025-12-10T05:46:14.210956+00:00", "meta": {"OBJECT_NAME": "IRIDIUM 33 DEB", "OBJECT_ID": "1997-051EN", "EPOCH": "2025-12-09T14:28:40.150272", "MEAN_MOTION": 14.38481975, "ECCENTRICITY": 0.0026022, "INCLINATION": 86.3511, "RA_OF_ASC_NODE": 49.5787, "ARG_OF_PERICENTER": 298.8838, "MEAN_ANOMALY": 60.975, "EPHEMERIS_TYPE": 0, "CLASSIFICATION_TYPE": "U", "NORAD_CAT_ID": 34159, "ELEMENT_SET_NO": 999, "REV_AT_EPOCH": 87914, "BSTAR": 0.00067158, "MEAN_MOTION_DOT": 2.077e-05, "MEAN_MOTION_DDOT": 0}, "tle": {"line1": "1 34159U 97051EN  25343.60324248  .00002077  00000+0  67158-3 0  9995", "line2": "2 34159  86.3511  49.5787 0026022 298.8838  60.9750 14.38481975879142"}}, "geometry": {"type": "Point", "coordinates": [55.065733705450015, 57.54435151573319]}}, {"type": "Feature", "properties": {"norad_id": 34350, "name": "IRIDIUM 33 DEB", "group": "iridium-33-debris", "lat": 23.998743663285257, "lon": 5.5304633712299545, "alt_km": 747.9846610811082, "timestamp": "2025-12-10T05:46:14.210966+00:00", "meta": {"OBJECT_NAME": "IRIDIUM 33 DEB", "OBJECT_ID": "1997-051ES", "EPOCH": "2025-12-09T20:14:46.180320", "MEAN_MOTION": 14.45377644, "ECCENTRICITY": 0.0022559, "INCLINATION": 86.3276, "RA_OF_ASC_NODE": 4.0641, "ARG_OF_PERICENTER": 144.1954, "MEAN_ANOMALY": 336.5397, "EPHEMERIS_TYPE": 0, "CLASSIFICATION_TYPE": "U", "NORAD_CAT_ID": 34350, "ELEMENT_SET_NO": 999, "REV_AT_EPOCH": 88251, "BSTAR": 0.00052891, "MEAN_MOTION_DOT": 1.884e-05, "MEAN_MOTION_DDOT": 0}, "tle": {"line1": "1 34350U 97051ES  25343.84359005  .00001884  00000+0  52891-3 0  9996", "line2": "2 34350  86.3276   4.0641 0022559 144.1954 336.5397 14.45377644882510"}}, "geometry": {"type": "Point", "coordinates": [5.5304633712299545, 23.998743663285257]}}, {"type": "Feature", "properties": {"norad_id": 34366, "name": "IRIDIUM 33 DEB", "group": "iridium-33-debris", "lat": -84.02869719650248, "lon": 13.022440250258482, "alt_km": 729.5383818458331, "timestamp": "2025-12-10T05:46:14.210976+00:00", "meta": {"OBJECT_NAME": "IRIDIUM 33 DEB", "OBJECT_ID": "1997-051FJ", "EPOCH": "2025-12-09T15:59:46.412160", "MEAN_MOTION": 14.54015219, "ECCENTRICITY": 0.0022251, "INCLINATION": 86.3691, "RA_OF_ASC_NODE": 50.6497, "ARG_OF_PERICENTER": 149.3626, "MEAN_ANOMALY": 2.8862, "EPHEMERIS_TYPE": 0, "CLASSIFICATION_TYPE": "U", "NORAD_CAT_ID": 34366, "ELEMENT_SET_NO": 999, "REV_AT_EPOCH": 88137, "BSTAR": 0.0017418, "MEAN_MOTION_DOT": 7.389e-05, "MEAN_MOTION_DDOT": 0}, "tle": {"line1": "1 34366U 97051FJ  25343.66650940  .00007389  00000+0  17418-2 0  9996", "line2": "2 34366  86.3691  50.6497 0022251 149.3626   2.8862 14.54015219881376"}}, "geometry": {"type": "Point", "coordinates": [13.022440250258482, -84.02869719650248]}}]}